{"code":100,"msg":"处理成功!","extend":{"customerInfos":[{"id":2,"name":"冯戴军","telcode":"13855212139","department":"迪克开心饭店","regioncode":"140212","address":"交界处就快点快点","postcode":5216},{"id":3,"name":"李敏","telcode":"18633225586","department":"福坚持坚持到底","regioncode":"341003","address":"姐姐电话号姐姐就到家","postcode":7085810},{"id":5,"name":"张杰","telcode":"13466585807","department":"好好的就是","regioncode":"220204","address":"妈的感觉非常好","postcode":1708740},{"id":6,"name":"聚一下","telcode":"058298985252","department":null,"regioncode":"330104","address":"来看看看看的结局是","postcode":0},{"id":7,"name":"张卡里","telcode":"13900894652","department":"黑乎乎vvhh上述而不作","regioncode":"320706","address":"驾驶室内外离开的奶奶看看","postcode":0},{"id":8,"name":"张三丰","telcode":"13678785646","department":"咳咳咳灭口口口口口","regioncode":"632222","address":"钱洁到底","postcode":0},{"id":9,"name":"吴英","telcode":"13208956217","department":null,"regioncode":"131003","address":"果园区卷福巷1234","postcode":0},{"id":10,"name":"李未能","telcode":"13455286860","department":"觉得就克服困你舅舅家","regioncode":"230503","address":"收衣服呢内存不足吉杰","postcode":0},{"id":11,"name":"张可等","telcode":"13888558521","department":"普一天头","regioncode":"441803","address":"一园区1465@96","postcode":0}]}}